BEIDOU-2 IGSO-1 (C06)   
1 36828U 10036A   24232.61213582 -.00000153  00000+0  00000+0 0  9996
2 36828  54.2576 168.9936 0041462 205.9839 281.2703  1.00263448 51527
BEIDOU-2 G4 (C04)       
1 37210U 10057A   24236.54571953 -.00000119  00000+0  00000+0 0  9992
2 37210   2.0037  69.5125 0006315 154.8985 104.4673  1.00271881 50648
BEIDOU-2 IGSO-2 (C07)   
1 37256U 10068A   24235.56021545 -.00000181  00000+0  00000+0 0  9991
2 37256  48.7552 280.0095 0040630 216.3397 144.4588  1.00281826 50135
BEIDOU-2 IGSO-3 (C08)   
1 37384U 11013A   24235.42132590 -.00000164  00000+0  00000+0 0  9993
2 37384  61.4563  46.4710 0031919 173.0858   9.4910  1.00291622 49019
BEIDOU-2 IGSO-4 (C09)   
1 37763U 11038A   24233.78745145 -.00000064  00000+0  00000+0 0  9993
2 37763  54.5645 171.6122 0129182 229.5251 304.6584  1.00293364 47971
BEIDOU-2 IGSO-5 (C10)   
1 37948U 11073A   24234.52902519 -.00000124  00000+0  00000+0 0  9997
2 37948  48.8911 279.7145 0103178 221.1815 116.0663  1.00278401 46465
BEIDOU-2 G5 (C05)       
1 38091U 12008A   24235.85295509  .00000050  00000+0  00000+0 0  9994
2 38091   2.2345  71.2383 0003866 217.3150  48.8622  1.00268726 45714
BEIDOU-2 M3 (C11)       
1 38250U 12018A   24235.51531137 -.00000080  00000+0  00000+0 0  9999
2 38250  56.2914 327.1360 0023298 260.5086  99.2776  1.86231105 83930
BEIDOU-2 M4 (C12)       
1 38251U 12018B   24235.44524151 -.00000078  00000+0  00000+0 0  9997
2 38251  56.1978 326.4047 0014232 259.9186  99.9713  1.86231790 83933
BEIDOU-2 M6 (C14)       
1 38775U 12050B   24234.08095083  .00000009  00000+0  00000+0 0  9993
2 38775  55.9641  84.9937 0011859 347.9868  12.0773  1.86231072 81279
BEIDOU-2 G6 (C02)       
1 38953U 12059A   24235.92949670 -.00000182  00000+0  00000+0 0  9997
2 38953   2.7255  79.9942 0006999 317.1468 353.1615  1.00268388 43258
BEIDOU-3S IGSO-1S (C31) 
1 40549U 15019A   24234.63944069 -.00000163  00000+0  00000+0 0  9993
2 40549  50.4493 303.4200 0036687 196.1345 156.0883  1.00290945 34402
BEIDOU-3S M2S (C58)     
1 40748U 15037A   24235.10789448 -.00000075  00000+0  00000+0 0  9997
2 40748  55.4279 324.7954 0011292 246.1606 113.7736  1.86233061 61758
BEIDOU-3S M1S (C57)     
1 40749U 15037B   24235.91708087 -.00000081  00000+0  00000+0 0  9994
2 40749  55.4299 324.7541 0002563 326.0705  33.9647  1.86227410 61779
BEIDOU-3S IGSO-2S (C56) 
1 40938U 15053A   24235.74479554 -.00000103  00000+0  00000+0 0  9992
2 40938  50.2544 266.6252 0053395 189.4843 238.0321  1.00290855 32696
BEIDOU-2 IGSO-6 (C13)   
1 41434U 16021A   24235.44493934 -.00000131  00000+0  00000+0 0  9996
2 41434  59.2764  44.6774 0049001 220.8467 318.9854  1.00258442 30823
BEIDOU-2 G7 (C03)       
1 41586U 16037A   24235.93479640 -.00000362  00000+0  00000+0 0  9999
2 41586   1.5370  65.3629 0007490 359.1374 354.2696  1.00275267   235
BEIDOU-3 M1 (C19)       
1 43001U 17069A   24235.99470176 -.00000011  00000+0  00000+0 0  9991
2 43001  56.1159  85.0345 0007922 311.6570  48.3572  1.86231288 46250
BEIDOU-3 M2 (C20)       
1 43002U 17069B   24235.93211214 -.00000010  00000+0  00000+0 0  9991
2 43002  56.1149  85.0730 0006645 344.7226  15.3398  1.86230943 46240
BEIDOU-3 M7 (C27)       
1 43107U 18003A   24235.14360673 -.00000077  00000+0  00000+0 0  9996
2 43107  54.8860 325.3561 0003377  87.9930 272.0969  1.86232386 44988
BEIDOU-3 M8 (C28)       
1 43108U 18003B   24235.08459129 -.00000077  00000+0  00000+0 0  9995
2 43108  54.8792 325.3433 0004145 247.6642 112.3433  1.86230815 44998
BEIDOU-3 M4 (C22)       
1 43207U 18018A   24233.91500575  .00000011  00000+0  00000+0 0  9990
2 43207  56.0726  85.1910 0005637  21.9068 338.2106  1.86231220 44359
BEIDOU-3 M3 (C21)       
1 43208U 18018B   24236.12943123 -.00000012  00000+0  00000+0 0  9999
2 43208  56.0743  85.1213 0006049 330.9727  29.0751  1.86231112 44393
BEIDOU-3 M9 (C29)       
1 43245U 18029A   24236.35000563 -.00000083  00000+0  00000+0 0  9997
2 43245  54.7661 323.0155 0001694 219.3557 140.6847  1.86232389 43559
BEIDOU-3 M10 (C30)      
1 43246U 18029B   24234.13179146 -.00000068  00000+0  00000+0 0  9999
2 43246  54.7654 323.1202 0002534   3.4848 356.5715  1.86232832 43505
BEIDOU-2 IGSO-7 (C16)   
1 43539U 18057A   24235.73868921 -.00000141  00000+0  00000+0 0  9990
2 43539  55.1509 168.8101 0078922 234.0532 306.0825  1.00291193 22489
BEIDOU-3 M5 (C23)       
1 43581U 18062A   24235.96648018  .00000057  00000+0  00000+0 0  9996
2 43581  54.1286 204.8598 0005143 283.2808  76.6273  1.86228462 41284
BEIDOU-3 M6 (C24)       
1 43582U 18062B   24236.36896824  .00000059  00000+0  00000+0 0  9994
2 43582  54.1281 204.8355 0004883   1.9865 357.9823  1.86229479 41295
BEIDOU-3 M12 (C26)      
1 43602U 18067A   24235.22790839  .00000052  00000+0  00000+0 0  9998
2 43602  54.2192 203.5620 0007161  19.6341 340.3562  1.86229570 40756
BEIDOU-3 M11 (C25)      
1 43603U 18067B   24236.43560876  .00000059  00000+0  00000+0 0  9996
2 43603  54.2163 203.4860 0004072   3.3414 356.6280  1.86231345 40805
BEIDOU-3 M13 (C32)      
1 43622U 18072A   24234.24961501  .00000008  00000+0  00000+0 0  9994
2 43622  56.0443  84.7092 0004700 313.1257  46.9263  1.86231410 40273
BEIDOU-3 M14 (C33)      
1 43623U 18072B   24234.11507482  .00000009  00000+0  00000+0 0  9996
2 43623  56.0463  84.7070 0003705   0.9010 359.1916  1.86231410 40267
BEIDOU-3 M16 (C35)      
1 43647U 18078A   24235.35127105 -.00000076  00000+0  00000+0 0  9990
2 43647  54.6636 323.1434 0005902  18.3255 341.7498  1.86232067 39795
BEIDOU-3 M15 (C34)      
1 43648U 18078B   24234.94345936 -.00000073  00000+0  00000+0 0  9996
2 43648  54.6596 323.1601 0002710  32.7641 327.3072  1.86232176 39812
BEIDOU-3 G1 (C59)       
1 43683U 18085A   24236.01203306 -.00000286  00000+0  00000+0 0  9993
2 43683   2.3517 107.1209 0002692  21.0038 348.0670  1.00269309 21402
BEIDOU-3 M17 (C36)      
1 43706U 18093A   24236.16841980  .00000058  00000+0  00000+0 0  9996
2 43706  54.2115 204.7963 0010023 284.1246  75.7301  1.86228107 39172
BEIDOU-3 M18 (C37)      
1 43707U 18093B   24235.49626588  .00000054  00000+0  00000+0 0  9993
2 43707  54.2124 204.8109 0008154 310.0577  49.8347  1.86229624 39171
BEIDOU-3 IGSO-1 (C38)   
1 44204U 19023A   24236.36585191 -.00000206  00000+0  00000+0 0  9991
2 44204  57.7445  44.5199 0023424 204.3620 334.4778  1.00280718 19713
BEIDOU-2 G8 (C01)       
1 44231U 19027A   24235.56610304 -.00000257  00000+0  00000+0 0  9997
2 44231   1.6362  74.2498 0002766 171.2362  74.0730  1.00266050 19428
BEIDOU-3 IGSO-2 (C39)   
1 44337U 19035A   24236.51652571 -.00000143  00000+0  00000+0 0  9995
2 44337  55.1837 164.6802 0035081 204.0573 268.6703  1.00275935 19056
BEIDOU-3 M24 (C46)      
1 44542U 19061A   24236.10291680  .00000059  00000+0  00000+0 0  9992
2 44542  54.4391 205.0983 0008303 346.7637  13.1805  1.86229257 33448
BEIDOU-3 M23 (C45)      
1 44543U 19061B   24236.53144133  .00000061  00000+0  00000+0 0  9993
2 44543  54.4376 205.0524 0005670 328.7982 230.9904  1.86229280 33445
BEIDOU-3 IGSO-3 (C40)   
1 44709U 19073A   24235.54845196 -.00000167  00000+0  00000+0 0  9995
2 44709  55.9358 288.0245 0041340 189.9042 170.1269  1.00282506 17801
BEIDOU-3 M22 (C44)      
1 44793U 19078A   24236.48535420 -.00000084  00000+0  00000+0 0  9991
2 44793  54.5103 323.0278 0004673  26.3097 333.7662  1.86232083 32311
BEIDOU-3 M21 (C43)      
1 44794U 19078B   24236.07803067 -.00000081  00000+0  00000+0 0  9999
2 44794  54.4841 323.0167 0002589  17.0726 342.9892  1.86232514 32302
BEIDOU-3 M19 (C41)      
1 44864U 19090A   24236.33521556 -.00000015  00000+0  00000+0 0  9997
2 44864  55.9804  84.8066 0015635 283.0745  81.9722  1.86231536 31884
BEIDOU-3 M20 (C42)      
1 44865U 19090B   24235.60923522 -.00000007  00000+0  00000+0 0  9997
2 44865  55.9815  84.8647 0013461 298.3384  29.6860  1.86231462 31852
BEIDOU-3 G2 (C60)       
1 45344U 20017A   24236.07173515 -.00000149  00000+0  00000+0 0  9999
2 45344   2.4000  32.0628 0002903 165.3842 240.2646  1.00271666 16620
BEIDOU-3 G3 (C61)       
1 45807U 20040A   24236.53452051 -.00000361  00000+0  00000+0 0  9991
2 45807   0.8969  49.5413 0002360 351.7164 234.0256  1.00268626 15438
BEIDOU-3 G4             
1 56564U 23066A   24235.87302447 -.00000120  00000+0  00000+0 0  9996
2 56564   1.9604 288.3212 0006162 222.5275 295.1119  1.00270826  4743
BEIDOU-3 M25            
1 58654U 23207A   24235.08701865 -.00000003  00000+0  00000+0 0  9995
2 58654  55.1631  84.8187 0000605 330.5601  29.5231  1.86232203  4470
BEIDOU-3 M26            
1 58655U 23207B   24235.96000028 -.00000013  00000+0  00000+0 0  9997
2 58655  55.1661  84.7744 0001384 243.4797 116.5877  1.86231807  4477
